HULIANWANG DIGUI 13J    
1 66420U 25258J   25334.62814196  .00000110  00000+0  11770-3 0  9994
2 66420  50.0023 312.8851 0011469 324.5574  35.4576 14.23470388  2922
CZ-12 R/B               
1 66421U 25258K   25334.45663216 -.00000090  00000+0  23739-4 0  9998
2 66421  49.9953 311.2478 0064542 205.2563 154.5197 14.42314877  2948
STARLINK-35617          
1 66422U 25259A   25334.83336806 -.01954885  00000+0 -30974-1 0  9992
2 66422  42.9992 117.0133 0001450 273.7966  29.3775 15.56129521  4366
STARLINK-35618          
1 66423U 25259B   25334.83336806 -.01954761  00000+0 -30970-1 0  9992
2 66423  42.9995 117.0085 0001510 272.3217  32.7689 15.56129761  4365
STARLINK-35588          
1 66424U 25259C   25334.83336806 -.01955595  00000+0 -30985-1 0  9995
2 66424  42.9992 117.0045 0001473 273.0626  33.9449 15.56130361  4364
STARLINK-35555          
1 66425U 25259D   25334.83336806 -.01952552  00000+0 -30933-1 0  9999
2 66425  42.9993 116.9979 0001438 273.7703  35.1553 15.56128349  4367
STARLINK-35589          
1 66426U 25259E   25334.83336806 -.02013040  00000+0 -31340-1 0  9994
2 66426  42.9997 116.9946 0001465 273.2968  37.5444 15.56142535  4362
STARLINK-35611          
1 66427U 25259F   25334.83336806 -.01946240  00000+0 -30823-1 0  9996
2 66427  42.9996 116.9888 0001466 275.0860  37.6727 15.56124905  4365
STARLINK-35610          
1 66428U 25259G   25334.83336806 -.01958340  00000+0 -31031-1 0  9993
2 66428  42.9995 116.9840 0001528 273.3232  41.3510 15.56132607  4366
STARLINK-35533          
1 66429U 25259H   25334.83336806 -.01999395  00000+0 -31113-1 0  9990
2 66429  42.9995 116.9777 0001457 277.1689  39.4241 15.56134264  4365
STARLINK-35470          
1 66430U 25259J   25334.83336806 -.01962265  00000+0 -31100-1 0  9994
2 66430  42.9991 116.9741 0001584 277.4080  41.1016 15.56133634  4363
STARLINK-35439          
1 66431U 25259K   25334.83336806 -.01950011  00000+0 -30887-1 0  9992
2 66431  42.9991 116.9681 0001530 275.8035  44.6228 15.56127223  4360
