CCSDS_OMM_VERS = 2.0
CREATION_DATE  = 
ORIGINATOR     = 

OBJECT_NAME    = HULIANWANG DIGUI 13J
OBJECT_ID      = 2025-258J
CENTER_NAME    = EARTH
REF_FRAME      = TEME
TIME_SYSTEM    = UTC
MEAN_ELEMENT_THEORY = SGP/SGP4

EPOCH          = 2025-11-30T15:04:31.465344
MEAN_MOTION    = 14.23470388
ECCENTRICITY   = .00114697
INCLINATION    = 50.0023
RA_OF_ASC_NODE = 312.8851
ARG_OF_PERICENTER = 324.5574
MEAN_ANOMALY   = 35.4576

EPHEMERIS_TYPE = 0
CLASSIFICATION_TYPE = U
NORAD_CAT_ID   = 66420
ELEMENT_SET_NO = 999
REV_AT_EPOCH   = 292
BSTAR          = .11770019E-3
MEAN_MOTION_DOT = .11E-5
MEAN_MOTION_DDOT = 0

CCSDS_OMM_VERS = 2.0
CREATION_DATE  = 
ORIGINATOR     = 

OBJECT_NAME    = CZ-12 R/B
OBJECT_ID      = 2025-258K
CENTER_NAME    = EARTH
REF_FRAME      = TEME
TIME_SYSTEM    = UTC
MEAN_ELEMENT_THEORY = SGP/SGP4

EPOCH          = 2025-11-30T10:57:33.018624
MEAN_MOTION    = 14.42314877
ECCENTRICITY   = .00645425
INCLINATION    = 49.9953
RA_OF_ASC_NODE = 311.2478
ARG_OF_PERICENTER = 205.2563
MEAN_ANOMALY   = 154.5197

EPHEMERIS_TYPE = 0
CLASSIFICATION_TYPE = U
NORAD_CAT_ID   = 66421
ELEMENT_SET_NO = 999
REV_AT_EPOCH   = 294
BSTAR          = .23738732E-4
MEAN_MOTION_DOT = -.9E-6
MEAN_MOTION_DDOT = 0

CCSDS_OMM_VERS = 2.0
CREATION_DATE  = 
ORIGINATOR     = 

OBJECT_NAME    = STARLINK-35617
OBJECT_ID      = 2025-259A
CENTER_NAME    = EARTH
REF_FRAME      = TEME
TIME_SYSTEM    = UTC
MEAN_ELEMENT_THEORY = SGP/SGP4

EPOCH          = 2025-11-30T20:00:03.000384
MEAN_MOTION    = 15.56129521
ECCENTRICITY   = .000145
INCLINATION    = 42.9992
RA_OF_ASC_NODE = 117.0133
ARG_OF_PERICENTER = 273.7966
MEAN_ANOMALY   = 29.3775

EPHEMERIS_TYPE = 0
CLASSIFICATION_TYPE = U
NORAD_CAT_ID   = 66422
ELEMENT_SET_NO = 999
REV_AT_EPOCH   = 436
BSTAR          = -.30974E-1
MEAN_MOTION_DOT = -.1954885E-1
MEAN_MOTION_DDOT = 0

CCSDS_OMM_VERS = 2.0
CREATION_DATE  = 
ORIGINATOR     = 

OBJECT_NAME    = STARLINK-35618
OBJECT_ID      = 2025-259B
CENTER_NAME    = EARTH
REF_FRAME      = TEME
TIME_SYSTEM    = UTC
MEAN_ELEMENT_THEORY = SGP/SGP4

EPOCH          = 2025-11-30T20:00:03.000384
MEAN_MOTION    = 15.56129761
ECCENTRICITY   = .000151
INCLINATION    = 42.9995
RA_OF_ASC_NODE = 117.0085
ARG_OF_PERICENTER = 272.3217
MEAN_ANOMALY   = 32.7689

EPHEMERIS_TYPE = 0
CLASSIFICATION_TYPE = U
NORAD_CAT_ID   = 66423
ELEMENT_SET_NO = 999
REV_AT_EPOCH   = 436
BSTAR          = -.3097E-1
MEAN_MOTION_DOT = -.1954761E-1
MEAN_MOTION_DDOT = 0

CCSDS_OMM_VERS = 2.0
CREATION_DATE  = 
ORIGINATOR     = 

OBJECT_NAME    = STARLINK-35588
OBJECT_ID      = 2025-259C
CENTER_NAME    = EARTH
REF_FRAME      = TEME
TIME_SYSTEM    = UTC
MEAN_ELEMENT_THEORY = SGP/SGP4

EPOCH          = 2025-11-30T20:00:03.000384
MEAN_MOTION    = 15.56130361
ECCENTRICITY   = .0001473
INCLINATION    = 42.9992
RA_OF_ASC_NODE = 117.0045
ARG_OF_PERICENTER = 273.0626
MEAN_ANOMALY   = 33.9449

EPHEMERIS_TYPE = 0
CLASSIFICATION_TYPE = U
NORAD_CAT_ID   = 66424
ELEMENT_SET_NO = 999
REV_AT_EPOCH   = 436
BSTAR          = -.30985E-1
MEAN_MOTION_DOT = -.1955595E-1
MEAN_MOTION_DDOT = 0

CCSDS_OMM_VERS = 2.0
CREATION_DATE  = 
ORIGINATOR     = 

OBJECT_NAME    = STARLINK-35555
OBJECT_ID      = 2025-259D
CENTER_NAME    = EARTH
REF_FRAME      = TEME
TIME_SYSTEM    = UTC
MEAN_ELEMENT_THEORY = SGP/SGP4

EPOCH          = 2025-11-30T20:00:03.000384
MEAN_MOTION    = 15.56128349
ECCENTRICITY   = .0001438
INCLINATION    = 42.9993
RA_OF_ASC_NODE = 116.9979
ARG_OF_PERICENTER = 273.7703
MEAN_ANOMALY   = 35.1553

EPHEMERIS_TYPE = 0
CLASSIFICATION_TYPE = U
NORAD_CAT_ID   = 66425
ELEMENT_SET_NO = 999
REV_AT_EPOCH   = 436
BSTAR          = -.30933E-1
MEAN_MOTION_DOT = -.1952552E-1
MEAN_MOTION_DDOT = 0

CCSDS_OMM_VERS = 2.0
CREATION_DATE  = 
ORIGINATOR     = 

OBJECT_NAME    = STARLINK-35589
OBJECT_ID      = 2025-259E
CENTER_NAME    = EARTH
REF_FRAME      = TEME
TIME_SYSTEM    = UTC
MEAN_ELEMENT_THEORY = SGP/SGP4

EPOCH          = 2025-11-30T20:00:03.000384
MEAN_MOTION    = 15.56142535
ECCENTRICITY   = .0001465
INCLINATION    = 42.9997
RA_OF_ASC_NODE = 116.9946
ARG_OF_PERICENTER = 273.2968
MEAN_ANOMALY   = 37.5444

EPHEMERIS_TYPE = 0
CLASSIFICATION_TYPE = U
NORAD_CAT_ID   = 66426
ELEMENT_SET_NO = 999
REV_AT_EPOCH   = 436
BSTAR          = -.3134E-1
MEAN_MOTION_DOT = -.201304E-1
MEAN_MOTION_DDOT = 0

CCSDS_OMM_VERS = 2.0
CREATION_DATE  = 
ORIGINATOR     = 

OBJECT_NAME    = STARLINK-35611
OBJECT_ID      = 2025-259F
CENTER_NAME    = EARTH
REF_FRAME      = TEME
TIME_SYSTEM    = UTC
MEAN_ELEMENT_THEORY = SGP/SGP4

EPOCH          = 2025-11-30T20:00:03.000384
MEAN_MOTION    = 15.56124905
ECCENTRICITY   = .0001466
INCLINATION    = 42.9996
RA_OF_ASC_NODE = 116.9888
ARG_OF_PERICENTER = 275.0860
MEAN_ANOMALY   = 37.6727

EPHEMERIS_TYPE = 0
CLASSIFICATION_TYPE = U
NORAD_CAT_ID   = 66427
ELEMENT_SET_NO = 999
REV_AT_EPOCH   = 436
BSTAR          = -.30823E-1
MEAN_MOTION_DOT = -.194624E-1
MEAN_MOTION_DDOT = 0

CCSDS_OMM_VERS = 2.0
CREATION_DATE  = 
ORIGINATOR     = 

OBJECT_NAME    = STARLINK-35610
OBJECT_ID      = 2025-259G
CENTER_NAME    = EARTH
REF_FRAME      = TEME
TIME_SYSTEM    = UTC
MEAN_ELEMENT_THEORY = SGP/SGP4

EPOCH          = 2025-11-30T20:00:03.000384
MEAN_MOTION    = 15.56132607
ECCENTRICITY   = .0001528
INCLINATION    = 42.9995
RA_OF_ASC_NODE = 116.9840
ARG_OF_PERICENTER = 273.3232
MEAN_ANOMALY   = 41.3510

EPHEMERIS_TYPE = 0
CLASSIFICATION_TYPE = U
NORAD_CAT_ID   = 66428
ELEMENT_SET_NO = 999
REV_AT_EPOCH   = 436
BSTAR          = -.31031E-1
MEAN_MOTION_DOT = -.195834E-1
MEAN_MOTION_DDOT = 0

CCSDS_OMM_VERS = 2.0
CREATION_DATE  = 
ORIGINATOR     = 

OBJECT_NAME    = STARLINK-35533
OBJECT_ID      = 2025-259H
CENTER_NAME    = EARTH
REF_FRAME      = TEME
TIME_SYSTEM    = UTC
MEAN_ELEMENT_THEORY = SGP/SGP4

EPOCH          = 2025-11-30T20:00:03.000384
MEAN_MOTION    = 15.56134264
ECCENTRICITY   = .0001457
INCLINATION    = 42.9995
RA_OF_ASC_NODE = 116.9777
ARG_OF_PERICENTER = 277.1689
MEAN_ANOMALY   = 39.4241

EPHEMERIS_TYPE = 0
CLASSIFICATION_TYPE = U
NORAD_CAT_ID   = 66429
ELEMENT_SET_NO = 999
REV_AT_EPOCH   = 436
BSTAR          = -.31113E-1
MEAN_MOTION_DOT = -.1999395E-1
MEAN_MOTION_DDOT = 0

CCSDS_OMM_VERS = 2.0
CREATION_DATE  = 
ORIGINATOR     = 

OBJECT_NAME    = STARLINK-35470
OBJECT_ID      = 2025-259J
CENTER_NAME    = EARTH
REF_FRAME      = TEME
TIME_SYSTEM    = UTC
MEAN_ELEMENT_THEORY = SGP/SGP4

EPOCH          = 2025-11-30T20:00:03.000384
MEAN_MOTION    = 15.56133634
ECCENTRICITY   = .0001584
INCLINATION    = 42.9991
RA_OF_ASC_NODE = 116.9741
ARG_OF_PERICENTER = 277.4080
MEAN_ANOMALY   = 41.1016

EPHEMERIS_TYPE = 0
CLASSIFICATION_TYPE = U
NORAD_CAT_ID   = 66430
ELEMENT_SET_NO = 999
REV_AT_EPOCH   = 436
BSTAR          = -.311E-1
MEAN_MOTION_DOT = -.1962265E-1
MEAN_MOTION_DDOT = 0

CCSDS_OMM_VERS = 2.0
CREATION_DATE  = 
ORIGINATOR     = 

OBJECT_NAME    = STARLINK-35439
OBJECT_ID      = 2025-259K
CENTER_NAME    = EARTH
REF_FRAME      = TEME
TIME_SYSTEM    = UTC
MEAN_ELEMENT_THEORY = SGP/SGP4

EPOCH          = 2025-11-30T20:00:03.000384
MEAN_MOTION    = 15.56127223
ECCENTRICITY   = .000153
INCLINATION    = 42.9991
RA_OF_ASC_NODE = 116.9681
ARG_OF_PERICENTER = 275.8035
MEAN_ANOMALY   = 44.6228

EPHEMERIS_TYPE = 0
CLASSIFICATION_TYPE = U
NORAD_CAT_ID   = 66431
ELEMENT_SET_NO = 999
REV_AT_EPOCH   = 436
BSTAR          = -.30887E-1
MEAN_MOTION_DOT = -.1950011E-1
MEAN_MOTION_DDOT = 0

